{
    "links": {
        "self": "http://www.neowsapp.com/rest/v1/neo/3328669?api_key=iIulBulltgU6a56xZRHN4H3l9WmuAYTsLGpBGhQ2"
    },
    "id": "3328669",
    "neo_reference_id": "3328669",
    "name": "(2006 FW)",
    "designation": "2006 FW",
    "nasa_jpl_url": "http://ssd.jpl.nasa.gov/sbdb.cgi?sstr=3328669",
    "absolute_magnitude_h": 22.8,
    "estimated_diameter": {
        "kilometers": {
            "estimated_diameter_min": 0.0732073989,
            "estimated_diameter_max": 0.1636967205
        },
        "meters": {
            "estimated_diameter_min": 73.2073989347,
            "estimated_diameter_max": 163.696720474
        },
        "miles": {
            "estimated_diameter_min": 0.0454889547,
            "estimated_diameter_max": 0.1017163949
        },
        "feet": {
            "estimated_diameter_min": 240.181762721,
            "estimated_diameter_max": 537.0627483999
        }
    },
    "is_potentially_hazardous_asteroid": false,
    "close_approach_data": [
        {
            "close_approach_date": "2005-09-11",
            "close_approach_date_full": "2005-Sep-11 16:18",
            "epoch_date_close_approach": 1126455480000,
            "relative_velocity": {
                "kilometers_per_second": "8.2413565971",
                "kilometers_per_hour": "29668.8837497184",
                "miles_per_hour": "18435.0905721514"
            },
            "miss_distance": {
                "astronomical": "0.4720800324",
                "lunar": "183.6391326036",
                "kilometers": "70622167.316570988",
                "miles": "43882579.9082481144"
            },
            "orbiting_body": "Earth"
        },
        {
            "close_approach_date": "2006-02-24",
            "close_approach_date_full": "2006-Feb-24 11:03",
            "epoch_date_close_approach": 1140778980000,
            "relative_velocity": {
                "kilometers_per_second": "11.6412258047",
                "kilometers_per_hour": "41908.4128970449",
                "miles_per_hour": "26040.2580026111"
            },
            "miss_distance": {
                "astronomical": "0.1155035312",
                "lunar": "44.9308736368",
                "kilometers": "17279082.244998544",
                "miles": "10736723.8385421472"
            },
            "orbiting_body": "Earth"
        }
    ],
    "orbital_data": {
        "orbit_id": "7",
        "orbit_determination_date": "2017-04-06 09:08:53",
        "first_observation_date": "2006-03-24",
        "last_observation_date": "2006-03-29",
        "data_arc_in_days": 5,
        "observations_used": 21,
        "orbit_uncertainty": "8",
        "minimum_orbit_intersection": ".0868337",
        "jupiter_tisserand_invariant": "4.699",
        "epoch_osculation": "2453820.5",
        "eccentricity": ".3739773575784068",
        "semi_major_axis": "1.379697043249332",
        "inclination": "13.7974371546087",
        "ascending_node_longitude": "177.9009350475184",
        "orbital_period": "591.935010221638",
        "perihelion_distance": ".8637215887562062",
        "perihelion_argument": "266.5965386580562",
        "aphelion_distance": "1.895672497742459",
        "perihelion_time": "2453734.987629052470",
        "mean_anomaly": "52.00647538922253",
        "mean_motion": ".6081748735645918",
        "equinox": "J2000",
        "orbit_class": {
            "orbit_class_type": "APO",
            "orbit_class_description": "Near-Earth asteroid orbits which cross the Earth’s orbit similar to that of 1862 Apollo",
            "orbit_class_range": "a (semi-major axis) > 1.0 AU; q (perihelion) < 1.017 AU"
        }
    },
    "is_sentry_object": false
}